{
  "type": "FeatureCollection",
  "features": [
    {
      "type": "Feature",
      "properties": {
        "norad_id": 54259,
        "name": "EUTELSAT 10B",
        "group": "eutelsat",
        "lat": -0.05060121966389196,
        "lon": -15.76043980059556,
        "alt_km": 35789.39738771825,
        "timestamp": "2025-12-12T16:50:32.819302+00:00",
        "meta_object_name": "EUTELSAT 10B",
        "meta_object_id": "2022-157A",
        "meta_epoch": "2025-12-12T03:15:15.814080",
        "meta_mean_motion": 1.00269595,
        "meta_eccentricity": 6.672e-05,
        "meta_inclination": 0.0602,
        "meta_ra_of_asc_node": 99.4652,
        "meta_arg_of_pericenter": 52.9075,
        "meta_mean_anomaly": 347.4998,
        "meta_ephemeris_type": 0,
        "meta_classification_type": "U",
        "meta_norad_cat_id": 54259,
        "meta_element_set_no": 999,
        "meta_rev_at_epoch": 1115,
        "meta_bstar": 0,
        "meta_mean_motion_dot": 7.7e-07,
        "meta_mean_motion_ddot": 0,
        "tle_line1": "1 54259U 22157A   25346.13559970  .00000077  00000+0  00000+0 0  9993",
        "tle_line2": "2 54259   0.0602  99.4652 0000667  52.9075 347.4998  1.00269595 11156"
      },
      "geometry": {
        "type": "Point",
        "coordinates": [
          -15.76043980059556,
          -0.05060121966389196
        ]
      }
    },
    {
      "type": "Feature",
      "properties": {
        "norad_id": 59346,
        "name": "EUTELSAT 36D",
        "group": "eutelsat",
        "lat": 0.015290129309920531,
        "lon": 10.113234388817238,
        "alt_km": 35784.87423041569,
        "timestamp": "2025-12-12T16:50:32.819313+00:00",
        "meta_object_name": "EUTELSAT 36D",
        "meta_object_id": "2024-059A",
        "meta_epoch": "2025-12-12T05:05:29.361696",
        "meta_mean_motion": 1.00269505,
        "meta_eccentricity": 4.441e-05,
        "meta_inclination": 0.0186,
        "meta_ra_of_asc_node": 351.1584,
        "meta_arg_of_pericenter": 1.6497,
        "meta_mean_anomaly": 200.5666,
        "meta_ephemeris_type": 0,
        "meta_classification_type": "U",
        "meta_norad_cat_id": 59346,
        "meta_element_set_no": 999,
        "meta_rev_at_epoch": 627,
        "meta_bstar": 0,
        "meta_mean_motion_dot": 0,
        "meta_mean_motion_ddot": 0,
        "tle_line1": "1 59346U 24059A   25346.21214539  .00000000  00000+0  00000+0 0  9992",
        "tle_line2": "2 59346   0.0186 351.1584 0000444   1.6497 200.5666  1.00269505  6278"
      },
      "geometry": {
        "type": "Point",
        "coordinates": [
          10.113234388817238,
          0.015290129309920531
        ]
      }
    }
  ]
}